COSMOS 1743             
1 16719U 86034A   25317.10827503  .00049816  00000+0  87815-3 0  9998
2 16719  82.5377 195.3182 0007284  16.1529 343.9953 15.50178341162147
SL-14 R/B               
1 16792U 86046B   25317.14312585  .00001080  00000+0  12211-3 0  9994
2 16792  82.4833 190.2627 0021687 252.3948 107.4900 14.85442615109101
SL-14 R/B               
1 16882U 86055B   25317.28813991  .00001361  00000+0  15454-3 0  9990
2 16882  82.5217 236.0424 0019097   2.3032 118.2610 14.85485265102087
AJISAI (EGS)            
1 16908U 86061A   25317.33906694 -.00000090  00000+0  54498-4 0  9996
2 16908  50.0084  91.1203 0011190 351.8573  25.4845 12.44514148453513
COSMOS 1812             
1 17295U 87003A   25317.07205062  .00097869  00000+0  82467-3 0  9990
2 17295  82.4887 323.9810 0004974 136.7895 223.3757 15.69482920125993
SL-14 R/B               
1 17567U 87024B   25317.15148381  .00001153  00000+0  12909-3 0  9999
2 17567  82.5302 202.2459 0016861 288.6855  71.2530 14.85982453 70820
COSMOS 1833             
1 17589U 87027A   25317.12703893 -.00000189  00000+0 -75389-4 0  9990
2 17589  70.9148 211.0274 0021229  13.4599 346.7084 14.13019924993844
SL-16 R/B               
1 17590U 87027B   25317.01547135 -.00000006  00000+0  21072-4 0  9992
2 17590  71.0008 162.3527 0007204 290.9738  69.0615 14.17147827998855
SL-14 R/B               
1 17912U 87038B   25317.28871619  .00001235  00000+0  14087-3 0  9999
2 17912  82.5037  46.4342 0019169 185.0862 175.0163 14.85219201 61953
COSMOS 1844             
1 17973U 87041A   25317.21485886  .00000516  00000+0  29257-3 0  9996
2 17973  70.8989 279.8423 0031648 201.5479 158.4313 14.14522338987119
SL-14 R/B               
1 18153U 87055B   25317.15107761  .00001220  00000+0  13813-3 0  9992
2 18153  82.4974  98.8718 0021686  42.0289 318.2586 14.85474570 52637
COSMOS 1867             
1 18187U 87060A   25317.26059757  .00000093  00000+0  72391-4 0  9992
2 18187  65.0103 272.7541 0013705 268.1932  91.7583 14.31479125  3279
